387P/Boattini,e,8.9176,259.3284,162.7778,4.799492,0.0937370,0.73601849,46.5703,01/15.0/2021,2000,g 15.0,4.0
# From MPEC 2020-HN5
388P/Gibbs,e,23.8639,37.0452,42.3819,5.245466,0.0820404,0.61795840,44.4211,01/15.0/2021,2000,g 13.0,4.0
# From MPC118845
389P/Siding Spring,e,160.0656,218.8503,249.2890,5.625951,0.0738601,0.70436244,28.2717,01/15.0/2021,2000,g 16.0,4.0
# From MPEC 2021-AJ0
390P/Gibbs,e,18.5604,152.2763,232.3473,5.801869,0.0705265,0.70702716,21.0695,01/15.0/2021,2000,g 12.0,4.0
# From MPEC 2021-AJ0
391P/Kowalski,e,21.2762,124.7298,186.8510,4.677607,0.0974246,0.12077660,100.5266,01/15.0/2021,2000,g  8.0,4.0
# From MPEC 2020-HN5
392P/LINEAR,e,4.9298,24.8817,71.9809,6.147895,0.0646568,0.68282400,18.6983,01/15.0/2021,2000,g 14.5,4.0
# From MPEC 2021-AJ0
393P/Spacewatch-Hill,e,16.7931,36.4200,328.1279,4.785226,0.0941565,0.12040641,42.2041,01/15.0/2021,2000,g 11.0,4.0
# From MPEC 2020-KB7
394P/PANSTARRS,e,8.5296,98.1246,54.5178,4.332501,0.1092939,0.36800647,44.9886,01/15.0/2021,2000,g 16.0,2.4
# From MPEC 2021-AJ0
395P/Catalina-NEAT,e,3.2789,223.7908,89.8084,6.530895,0.0590534,0.37762580,339.3177,01/15.0/2021,2000,g 10.0,4.0
# From MPEC 2020-KB7
396P/,e,5.4363,136.6621,8.6345,6.821291,0.0553228,0.41614367,27.9473,01/15.0/2021,2000,g 12.0,4.0
# From MPEC 2021-AJ0
397P/Lemmon,e,10.9283,8.2084,14.4140,3.826552,0.1316718,0.40494602,27.6090,01/15.0/2021,2000,g 12.0,4.0
# From MPEC 2021-AJ0
398P/Boattini,e,11.0154,127.4626,320.2377,3.128224,0.1781383,0.58261216,3.4296,01/15.0/2021,2000,g 15.5,4.0
# From MPEC 2021-AJ0
399P/PANSTARRS,e,13.3193,207.1465,214.2881,3.788665,0.1336518,0.44674675,342.9514,01/15.0/2021,2000,g 14.0,4.0
# From MPEC 2021-AJ0
400P/PANSTARRS,e,10.9292,176.3982,238.7833,3.558906,0.1468011,0.40899116,356.1700,01/15.0/2021,2000,g 15.5,2.8
# From MPEC 2021-AJ0
401P/McNaught,e,12.8040,359.8897,309.3015,5.771053,0.0710921,0.58011155,28.7862,01/15.0/2021,2000,g 12.5,4.0
# From MPEC 2021-AJ0
402P/LINEAR,e,30.8530,123.0882,326.7599,7.006642,0.0531422,0.43799797,342.2637,01/15.0/2021,2000,g  8.0,4.0
# From MPEC 2021-AJ0
403P/Catalina,e,12.3202,163.8150,277.6709,5.426370,0.0779722,0.50330292,9.4062,01/15.0/2021,2000,g 12.0,4.0
# From MPEC 2020-W26
404P/Bressi,e,9.8104,262.6415,158.6589,4.857819,0.0920539,0.13674249,271.7855,01/15.0/2021,2000,g 10.0,4.0
# From MPEC 2021-AJ0
405P/Lemmon,e,9.3649,3.3128,112.2489,3.610098,0.1436897,0.68923116,3.1153,01/15.0/2021,2000,g 17.5,4.0
# From MPEC 2020-W26
406P/Gibbs,e,1.2135,11.4726,352.3626,3.573223,0.1459197,0.54190789,17.6996,01/15.0/2021,2000,g 17.0,4.0
# From MPEC 2021-AJ0
407P/PANSTARRS-Fuls,e,4.8954,80.8357,92.4177,3.455743,0.1534235,0.38488087,53.5437,01/15.0/2021,2000,g 14.0,4.0
# From MPEC 2020-V78
408P/Novichonok-Gerke,e,19.2897,189.5335,225.5777,4.771688,0.0945575,0.27178951,301.0598,01/15.0/2021,2000,g 10.5,4.0
# From MPEC 2021-AJ0
409P/LONEOS-Hill,e,17.1185,143.6711,15.1374,6.050851,0.0662185,0.71011667,359.1277,01/15.0/2021,2000,g 14.0,4.0
# From MPC107687
1I/`Oumuamua,h,09/09.4886/2017,122.6778,24.5997,241.6845,1.199252,0.255240,2000,23.0,2.0
# From MPEC 2020-K19
2I/Borisov,h,12/08.5549/2019,44.0527,308.1480,209.1251,3.356636,2.006548,2000,11.0,4.0
